{
  "norad_id": 48455,
  "name": "STARLINK-2497",
  "history": [
    {
      "epoch": "2026-03-28T10:08:33.294912Z",
      "apogee_km": 476.13862764854366,
      "perigee_km": 474.3165921333584,
      "latitude_deg": -2.5665576904586215e-05,
      "longitude_deg": 113.13287529814987,
      "height_km": 476.0396410578936,
      "semi_major_axis_km": 6853.364609890951,
      "eccentricity": 0.00013293,
      "inclination_deg": 53.1579,
      "raan_deg": 91.1149,
      "arg_perigee_deg": 84.5991,
      "mean_anomaly_deg": 275.5161,
      "mean_motion_rev_day": 15.301958
    },
    {
      "epoch": "2026-03-29T04:57:11.118816Z",
      "apogee_km": 476.12955439023517,
      "perigee_km": 474.22707405900564,
      "latitude_deg": 5.524974283505444e-06,
      "longitude_deg": -173.43672123946075,
      "height_km": 475.9807076837108,
      "semi_major_axis_km": 6853.31531422462,
      "eccentricity": 0.0001388,
      "inclination_deg": 53.1584,
      "raan_deg": 87.4754,
      "arg_perigee_deg": 84.2464,
      "mean_anomaly_deg": 275.8695,
      "mean_motion_rev_day": 15.3021231
    },
    {
      "epoch": "2026-03-30T04:27:59.420160Z",
      "apogee_km": 476.30148593646845,
      "perigee_km": 474.16049377643776,
      "latitude_deg": -2.4647329236161584e-05,
      "longitude_deg": -171.6578604264829,
      "height_km": 475.9972766187757,
      "semi_major_axis_km": 6853.367989856453,
      "eccentricity": 0.0001562,
      "inclination_deg": 53.1586,
      "raan_deg": 82.9212,
      "arg_perigee_deg": 82.9573,
      "mean_anomaly_deg": 277.1605,
      "mean_motion_rev_day": 15.30194668
    },
    {
      "epoch": "2026-03-30T06:02:02.503104Z",
      "apogee_km": 476.08631051109205,
      "perigee_km": 474.35871564503486,
      "latitude_deg": 7.003072437498514e-05,
      "longitude_deg": 164.46398870703226,
      "height_km": 476.13132650204585,
      "semi_major_axis_km": 6853.359513078063,
      "eccentricity": 0.00012604,
      "inclination_deg": 53.1591,
      "raan_deg": 82.6202,
      "arg_perigee_deg": 90.7186,
      "mean_anomaly_deg": 269.396,
      "mean_motion_rev_day": 15.30197507
    },
    {
      "epoch": "2026-03-30T09:10:08.906592Z",
      "apogee_km": 476.1408542874733,
      "perigee_km": 474.301412964408,
      "latitude_deg": -1.460527985390223e-05,
      "longitude_deg": 116.70119012048389,
      "height_km": 476.17853896315836,
      "semi_major_axis_km": 6853.35813362594,
      "eccentricity": 0.0001342,
      "inclination_deg": 53.159,
      "raan_deg": 82.0129,
      "arg_perigee_deg": 93.7113,
      "mean_anomaly_deg": 266.4041,
      "mean_motion_rev_day": 15.30197969
    },
    {
      "epoch": "2026-03-30T17:00:24.782688Z",
      "apogee_km": 476.06797325627576,
      "perigee_km": 474.32201839701884,
      "latitude_deg": -3.807557632477371e-05,
      "longitude_deg": -2.7037620706841383,
      "height_km": 476.1412858214582,
      "semi_major_axis_km": 6853.3319958266475,
      "eccentricity": 0.00012738,
      "inclination_deg": 53.1595,
      "raan_deg": 80.496,
      "arg_perigee_deg": 93.1693,
      "mean_anomaly_deg": 266.9453,
      "mean_motion_rev_day": 15.30206723
    },
    {
      "epoch": "2026-03-31T16:31:12.115488Z",
      "apogee_km": 476.35614584613177,
      "perigee_km": 474.03286646554534,
      "latitude_deg": -3.845719141575688e-06,
      "longitude_deg": -0.9184059398476209,
      "height_km": 475.83436295599313,
      "semi_major_axis_km": 6853.331506155839,
      "eccentricity": 0.0001695,
      "inclination_deg": 53.16,
      "raan_deg": 75.9442,
      "arg_perigee_deg": 77.1832,
      "mean_anomaly_deg": 282.9358,
      "mean_motion_rev_day": 15.30206887
    },
    {
      "epoch": "2026-04-01T16:02:01.764672Z",
      "apogee_km": 476.32463443512734,
      "perigee_km": 474.27134531216234,
      "latitude_deg": -2.0856676033567974e-05,
      "longitude_deg": 0.8585339469528283,
      "height_km": 475.9741410656137,
      "semi_major_axis_km": 6853.434989873645,
      "eccentricity": 0.0001498,
      "inclination_deg": 53.16,
      "raan_deg": 71.3937,
      "arg_perigee_deg": 77.5316,
      "mean_anomaly_deg": 282.5852,
      "mean_motion_rev_day": 15.30172229
    },
    {
      "epoch": "2026-04-02T15:32:50.026272Z",
      "apogee_km": 476.5594697960896,
      "perigee_km": 473.90981925088454,
      "latitude_deg": -2.718037045935071e-06,
      "longitude_deg": 2.639697051425306,
      "height_km": 475.9477281807414,
      "semi_major_axis_km": 6853.371644523487,
      "eccentricity": 0.00019331,
      "inclination_deg": 53.1598,
      "raan_deg": 66.8416,
      "arg_perigee_deg": 82.014,
      "mean_anomaly_deg": 278.108,
      "mean_motion_rev_day": 15.30193444
    },
    {
      "epoch": "2026-04-03T15:03:37.630368Z",
      "apogee_km": 476.2737957842519,
      "perigee_km": 474.1506281983766,
      "latitude_deg": 7.289032275034417e-05,
      "longitude_deg": 4.4253494102067075,
      "height_km": 475.9917753852744,
      "semi_major_axis_km": 6853.3492119913135,
      "eccentricity": 0.0001549,
      "inclination_deg": 53.1605,
      "raan_deg": 62.2912,
      "arg_perigee_deg": 83.6082,
      "mean_anomaly_deg": 276.5096,
      "mean_motion_rev_day": 15.30200957
    },
    {
      "epoch": "2026-04-04T14:34:25.616352Z",
      "apogee_km": 476.36399629211337,
      "perigee_km": 474.0914205547997,
      "latitude_deg": -1.724340198722705e-05,
      "longitude_deg": 6.208481926429545,
      "height_km": 476.0434474757546,
      "semi_major_axis_km": 6853.364708423456,
      "eccentricity": 0.0001658,
      "inclination_deg": 53.1615,
      "raan_deg": 57.74,
      "arg_perigee_deg": 85.8635,
      "mean_anomaly_deg": 274.2555,
      "mean_motion_rev_day": 15.30195767
    },
    {
      "epoch": "2026-04-05T14:05:13.494336Z",
      "apogee_km": 476.31931070919654,
      "perigee_km": 474.1454219461966,
      "latitude_deg": -4.757324826235188e-05,
      "longitude_deg": 7.994209410541508,
      "height_km": 476.0248578334869,
      "semi_major_axis_km": 6853.369366327696,
      "eccentricity": 0.0001586,
      "inclination_deg": 53.161,
      "raan_deg": 53.1909,
      "arg_perigee_deg": 84.4423,
      "mean_anomaly_deg": 275.6758,
      "mean_motion_rev_day": 15.30194207
    },
    {
      "epoch": "2026-04-05T14:05:13.495200Z",
      "apogee_km": 476.31910510811485,
      "perigee_km": 474.1456275472783,
      "latitude_deg": -4.4831481949839044e-05,
      "longitude_deg": 7.994207843353036,
      "height_km": 476.0248777470223,
      "semi_major_axis_km": 6853.369366327696,
      "eccentricity": 0.00015857,
      "inclination_deg": 53.161,
      "raan_deg": 53.1909,
      "arg_perigee_deg": 84.4423,
      "mean_anomaly_deg": 275.6758,
      "mean_motion_rev_day": 15.30194207
    },
    {
      "epoch": "2026-04-06T02:37:39.949824Z",
      "apogee_km": 476.38601690595624,
      "perigee_km": 474.1719523379643,
      "latitude_deg": 1.476714261530518e-05,
      "longitude_deg": 176.94239613109175,
      "height_km": 476.1913784741699,
      "semi_major_axis_km": 6853.41598462196,
      "eccentricity": 0.00016153,
      "inclination_deg": 53.1614,
      "raan_deg": 50.7643,
      "arg_perigee_deg": 90.7588,
      "mean_anomaly_deg": 269.3598,
      "mean_motion_rev_day": 15.30178594
    },
    {
      "epoch": "2026-04-07T13:06:49.095648Z",
      "apogee_km": 476.0782901809216,
      "perigee_km": 474.3485045406287,
      "latitude_deg": 1.0050940681181638e-05,
      "longitude_deg": 11.562796692400424,
      "height_km": 475.9892449821272,
      "semi_major_axis_km": 6853.350397360775,
      "eccentricity": 0.0001262,
      "inclination_deg": 53.1623,
      "raan_deg": 44.0891,
      "arg_perigee_deg": 81.8572,
      "mean_anomaly_deg": 278.2572,
      "mean_motion_rev_day": 15.3020056
    },
    {
      "epoch": "2026-04-07T13:06:49.096512Z",
      "apogee_km": 476.0781531139146,
      "perigee_km": 474.34864160763664,
      "latitude_deg": 1.1877512692682088e-05,
      "longitude_deg": 11.562794443301918,
      "height_km": 475.989264396102,
      "semi_major_axis_km": 6853.350397360775,
      "eccentricity": 0.00012618,
      "inclination_deg": 53.1623,
      "raan_deg": 44.0891,
      "arg_perigee_deg": 81.8572,
      "mean_anomaly_deg": 278.2572,
      "mean_motion_rev_day": 15.3020056
    },
    {
      "epoch": "2026-04-08T12:37:38.049312Z",
      "apogee_km": 476.3122506300542,
      "perigee_km": 474.1676919082056,
      "latitude_deg": 2.2464631341840468e-05,
      "longitude_deg": 13.343060220231019,
      "height_km": 475.88067259067753,
      "semi_major_axis_km": 6853.37697126913,
      "eccentricity": 0.00015646,
      "inclination_deg": 53.1611,
      "raan_deg": 39.539,
      "arg_perigee_deg": 76.1246,
      "mean_anomaly_deg": 283.9929,
      "mean_motion_rev_day": 15.3019166
    },
    {
      "epoch": "2026-04-09T05:52:12.604512Z",
      "apogee_km": 476.3520791821775,
      "perigee_km": 474.1022567931095,
      "latitude_deg": -5.491123598823723e-05,
      "longitude_deg": 110.65407834358467,
      "height_km": 475.957772402465,
      "semi_major_axis_km": 6853.364167987643,
      "eccentricity": 0.00016414,
      "inclination_deg": 53.1601,
      "raan_deg": 36.2022,
      "arg_perigee_deg": 81.4626,
      "mean_anomaly_deg": 278.656,
      "mean_motion_rev_day": 15.30195948
    },
    {
      "epoch": "2026-04-10T00:40:51.212928Z",
      "apogee_km": 476.07878518190955,
      "perigee_km": 474.40875335605415,
      "latitude_deg": -6.299273741374391e-05,
      "longitude_deg": -175.91922734947912,
      "height_km": 475.98426954234003,
      "semi_major_axis_km": 6853.380769268982,
      "eccentricity": 0.00012184,
      "inclination_deg": 53.1601,
      "raan_deg": 32.5623,
      "arg_perigee_deg": 79.1142,
      "mean_anomaly_deg": 280.9995,
      "mean_motion_rev_day": 15.30190388
    }
  ]
}